{"epoch":1784902576,"count":18312,"objects":[{"id":"27844","name":"CUTE-1","type":"PAYLOAD","l1":"1 27844U 03031E   26204.98734998  .00000257  00000-0  12998-3 0  9999","l2":"2 27844  98.6747 213.0848 0010841  80.0988 280.1415 14.24355720196911"},{"id":"27848","name":"CUBESAT XI 4","type":"PAYLOAD","l1":"1 27848U 03031J   26204.01036090  .00000205  00000-0  10894-3 0  9991","l2":"2 27848  98.6778 211.8037 0010713  99.0689 261.1702 14.23637690196478"},{"id":"28895","name":"CUBESAT XI 5","type":"PAYLOAD","l1":"1 28895U 05043F   26204.88864678  .00001259  00000-0  20524-3 0  9996","l2":"2 28895  98.3026   1.2912 0015342  89.9342 270.3623 14.72719548107152"},{"id":"32785","name":"CUTE-1.7+APD 2","type":"PAYLOAD","l1":"1 32785U 08021C   26205.23490152  .00006274  00000-0  39253-3 0  9991","l2":"2 32785  97.8297 187.4378 0006985 261.1167  98.9271 15.09764989990786"},{"id":"32790","name":"CANX-2","type":"PAYLOAD","l1":"1 32790U 08021H   26204.90429732  .00004096  00000-0  28650-3 0  9995","l2":"2 32790  97.8657 185.4067 0008703 282.3663  77.6589 15.05845596990338"},{"id":"32791","name":"SEEDS","type":"PAYLOAD","l1":"1 32791U 08021J   26204.41936485  .00018972  00000-0  58050-3 0  9995","l2":"2 32791  97.7535 204.0815 0003921 140.5450 219.6077 15.33884906992845"},{"id":"35932","name":"SWISSCUBE","type":"PAYLOAD","l1":"1 35932U 09051B   26205.18165447  .00001000  00000-0  20667-3 0  9993","l2":"2 35932  98.3997 113.7095 0008129  95.3450 264.8679 14.62544482894565"},{"id":"35933","name":"BEESAT","type":"PAYLOAD","l1":"1 35933U 09051C   26205.27891895  .00000823  00000-0  17486-3 0  9994","l2":"2 35933  98.3926 113.3659 0006490 106.4520 253.7394 14.61773472894609"},{"id":"35935","name":"ITUPSAT 1","type":"PAYLOAD","l1":"1 35935U 09051E   26205.23383542  .00000763  00000-0  16739-3 0  9990","l2":"2 35935  98.4010 112.4722 0008553 118.2197 241.9868 14.60489489894145"},{"id":"36799","name":"TISAT 1","type":"PAYLOAD","l1":"1 36799U 10035E   26204.81537073  .00021276  00000-0  66889-3 0  9999","l2":"2 36799  98.0705 154.6552 0004872 103.9525 256.2257 15.32998481873310"},{"id":"39090","name":"STRAND 1","type":"PAYLOAD","l1":"1 39090U 13009E   26204.95529915  .00000267  00000-0  10393-3 0  9997","l2":"2 39090  98.3941  24.2884 0009756 117.7529 242.4648 14.37182902702347"},{"id":"39091","name":"BRITE-A TUGSAT-1","type":"PAYLOAD","l1":"1 39091U 13009F   26205.05380224  .00000166  00000-0  70862-4 0  9994","l2":"2 39091  98.4015  23.5809 0011188 126.4028 233.8192 14.36555275702347"},{"id":"39151","name":"NEE 01 PEGASUS","type":"PAYLOAD","l1":"1 39151U 13018B   26203.83564981  .00002090  00000-0  20251-3 0  9993","l2":"2 39151  98.1267 349.1763 0013461  51.2724 308.9696 14.93816948716023"},{"id":"39269","name":"POPACS 2","type":"PAYLOAD","l1":"1 39269U 13055E   26205.13652839  .00028051 -82025-6  46061-3 0  9995","l2":"2 39269  80.9914 101.8759 0413741  75.2015 289.4647 14.92338943668728"},{"id":"39270","name":"POPACS 3","type":"PAYLOAD","l1":"1 39270U 13055F   26204.94028874  .00009400  00000-0  22439-3 0  9997","l2":"2 39270  81.0009 189.3110 0547626 317.9859  38.0520 14.56812976643905"},{"id":"39417","name":"ZACUBE","type":"PAYLOAD","l1":"1 39417U 13066B   26205.13222479  .00003759  00000-0  29057-3 0  9995","l2":"2 39417  97.7988 167.6473 0044060 126.6584 233.8702 15.01368948686273"},{"id":"39423","name":"WNISAT 1","type":"PAYLOAD","l1":"1 39423U 13066H   26204.85669937  .00001039  00000-0  19587-3 0  9990","l2":"2 39423  97.7246 351.4186 0164240 116.2252 245.5936 14.58134840672076"},{"id":"39427","name":"TRITON 1","type":"PAYLOAD","l1":"1 39427U 13066M   26205.30148841  .00002038  00000-0  24667-3 0  9996","l2":"2 39427  97.8207 114.2589 0091221 112.8488 248.2390 14.81822730679586"},{"id":"39430","name":"GOMX 1","type":"PAYLOAD","l1":"1 39430U 13066Q   26205.29508127  .00001196  00000-0  18579-3 0  9994","l2":"2 39430  97.6471  43.4167 0127425 318.8586  40.3066 14.69558452675365"},{"id":"39440","name":"CUBEBUG 2","type":"PAYLOAD","l1":"1 39440U 13066AA  26205.30394872  .00003060  00000-0  28413-3 0  9997","l2":"2 39440  97.8914 154.4500 0055518 264.3624  95.1262 14.94014397682531"},{"id":"39441","name":"NEE 02 KRYSAOR","type":"PAYLOAD","l1":"1 39441U 13066AB  26205.29365380  .00002107  00000-0  23434-3 0  9997","l2":"2 39441  97.8896 144.2491 0064664 309.0576  50.4896 14.86769248681711"},{"id":"39444","name":"FUNCUBE 1","type":"PAYLOAD","l1":"1 39444U 13066AE  26204.90812879  .00007483  00000-0  45787-3 0  9994","l2":"2 39444  97.8299 177.1366 0038119  79.5292 281.0228 15.09916203685207"},{"id":"39446","name":"UWE-3","type":"PAYLOAD","l1":"1 39446U 13066AG  26205.30915504  .00003722  00000-0  31926-3 0  9992","l2":"2 39446  97.8728 161.6441 0047941 193.4581 166.5366 14.97251576683139"},{"id":"40020","name":"BRITE TORONTO","type":"PAYLOAD","l1":"1 40020U 14033L   26205.27089625  .00001157  00000-0  18040-3 0  9991","l2":"2 40020  97.9780 333.5246 0079137 157.3013 203.1726 14.72738418647677"},{"id":"40021","name":"DUCHIFAT 1","type":"PAYLOAD","l1":"1 40021U 14033M   26204.12789154  .00177994  00000-0  12882-2 0  9999","l2":"2 40021  98.0412 268.5702 0003896 226.4566 133.6372 15.72917143661389"},{"id":"40024","name":"NANOSAT C BR1","type":"PAYLOAD","l1":"1 40024U 14033Q   26204.97735908  .00017775  00000-0  56732-3 0  9996","l2":"2 40024  98.0713 240.6541 0004890  76.0630 284.1154 15.32556213659610"},{"id":"40025","name":"QB50P1","type":"PAYLOAD","l1":"1 40025U 14033R   26204.98515962  .00008811  00000-0  42676-3 0  9997","l2":"2 40025  98.0974 218.7258 0010561  99.6465 260.5961 15.18771713658611"},{"id":"40032","name":"QB50P2","type":"PAYLOAD","l1":"1 40032U 14033Y   26204.81336508  .00007651  00000-0  40639-3 0  9992","l2":"2 40032  98.0771 203.9885 0008936  60.0225 300.1891 15.15595124658211"},{"id":"40037","name":"PERSEUS M2","type":"PAYLOAD","l1":"1 40037U 14033AD  26205.32963117  .00001675  00000-0  15618-3 0  9995","l2":"2 40037  97.9968 156.6323 0011809 170.1748 189.9705 14.95603573656332"},{"id":"40039","name":"PERSEUS M1","type":"PAYLOAD","l1":"1 40039U 14033AF  26205.29955046  .00001205  00000-0  11348-3 0  9990","l2":"2 40039  97.9652 150.0461 0011676 167.1754 192.9766 14.95735220656189"}]}